KUIPER-00008            
1 63724U 25088A   25310.32935904  .00011551  00000+0  94344-3 0  9990
2 63724  51.8906 289.3944 0011840  50.6864 309.5154 14.99744930 29553
KUIPER-00009            
1 63725U 25088B   25310.67274177  .00005053  00000+0  68635-3 0  9991
2 63725  51.9024 290.5575 0013374  52.3532 307.8642 14.80210245 29566
KUIPER-00010            
1 63726U 25088C   25310.60019829  .00001778  00000+0  26123-3 0  9992
2 63726  51.9027 267.3756 0012172  96.9575 263.2772 14.80106741 29507
KUIPER-00011            
1 63727U 25088D   25310.22096910  .00003994  00000+0  55110-3 0  9997
2 63727  51.9019 276.6366 0014476  67.6528 292.5967 14.80016611 29474
KUIPER-00012            
1 63728U 25088E   25310.83336806 -.01169071  00000+0 -73802-1 0  9994
2 63728  51.8771 259.0095 0011742  78.7357 335.3345 15.11577018  3734
KUIPER-00013            
1 63729U 25088F   25310.67503542 -.00005084  00000+0 -63750-3 0  9995
2 63729  51.9024 292.0500 0008391 347.3852  12.6899 14.79943173 29353
KUIPER-00014            
1 63730U 25088G   25310.67338682  .00001036  00000+0  16509-3 0  9999
2 63730  51.9033 293.0267 0008783  47.7588 312.4118 14.79942698 29152
KUIPER-00015            
1 63731U 25088H   25310.28674666  .00004296  00000+0  56961-3 0  9999
2 63731  51.9007 306.2088 0010586  30.7300 329.4281 14.81578632 29391
